{
  "type": "FeatureCollection",
  "features": [
    {
      "type": "Feature",
      "properties": {
        "norad_id": 42988,
        "name": "SKYSAT-C10",
        "group": "resource",
        "lat": -39.297618307154536,
        "lon": 121.21256105464956,
        "alt_km": 479.6336538517007,
        "timestamp": "2025-12-10T05:46:13.454886+00:00",
        "meta_object_name": "SKYSAT-C10",
        "meta_object_id": "2017-068B",
        "meta_epoch": "2025-12-09T20:32:15.859104",
        "meta_mean_motion": 15.31963547,
        "meta_eccentricity": 0.0005317,
        "meta_inclination": 97.426,
        "meta_ra_of_asc_node": 114.6991,
        "meta_arg_of_pericenter": 111.9212,
        "meta_mean_anomaly": 248.2595,
        "meta_ephemeris_type": 0,
        "meta_classification_type": "U",
        "meta_norad_cat_id": 42988,
        "meta_element_set_no": 999,
        "meta_rev_at_epoch": 45335,
        "meta_bstar": 0.00053643,
        "meta_mean_motion_dot": 0.00016501,
        "meta_mean_motion_ddot": 0,
        "tle_line1": "1 42988U 17068B   25343.85573911  .00016501  00000+0  53643-3 0  9995",
        "tle_line2": "2 42988  97.4260 114.6991 0005317 111.9212 248.2595 15.31963547453354"
      },
      "geometry": {
        "type": "Point",
        "coordinates": [
          121.21256105464956,
          -39.297618307154536
        ]
      }
    },
    {
      "type": "Feature",
      "properties": {
        "norad_id": 42989,
        "name": "SKYSAT-C9",
        "group": "resource",
        "lat": 47.09514957155183,
        "lon": -57.46592939405553,
        "alt_km": 448.1517526827811,
        "timestamp": "2025-12-10T05:46:13.454896+00:00",
        "meta_object_name": "SKYSAT-C9",
        "meta_object_id": "2017-068C",
        "meta_epoch": "2025-12-09T19:48:56.578176",
        "meta_mean_motion": 15.35931853,
        "meta_eccentricity": 0.0010695,
        "meta_inclination": 97.4189,
        "meta_ra_of_asc_node": 114.0567,
        "meta_arg_of_pericenter": 97.0413,
        "meta_mean_anomaly": 263.2047,
        "meta_ephemeris_type": 0,
        "meta_classification_type": "U",
        "meta_norad_cat_id": 42989,
        "meta_element_set_no": 999,
        "meta_rev_at_epoch": 45363,
        "meta_bstar": 0.00053743,
        "meta_mean_motion_dot": 0.00018773,
        "meta_mean_motion_ddot": 0,
        "tle_line1": "1 42989U 17068C   25343.82565484  .00018773  00000+0  53743-3 0  9993",
        "tle_line2": "2 42989  97.4189 114.0567 0010695  97.0413 263.2047 15.35931853453639"
      },
      "geometry": {
        "type": "Point",
        "coordinates": [
          -57.46592939405553,
          47.09514957155183
        ]
      }
    },
    {
      "type": "Feature",
      "properties": {
        "norad_id": 42990,
        "name": "SKYSAT-C8",
        "group": "resource",
        "lat": 48.24575680104523,
        "lon": -57.36593517035799,
        "alt_km": 463.9162973650664,
        "timestamp": "2025-12-10T05:46:13.454906+00:00",
        "meta_object_name": "SKYSAT-C8",
        "meta_object_id": "2017-068D",
        "meta_epoch": "2025-12-09T19:47:59.351136",
        "meta_mean_motion": 15.32817038,
        "meta_eccentricity": 0.0001784,
        "meta_inclination": 97.428,
        "meta_ra_of_asc_node": 113.8129,
        "meta_arg_of_pericenter": 1.5,
        "meta_mean_anomaly": 358.6247,
        "meta_ephemeris_type": 0,
        "meta_classification_type": "U",
        "meta_norad_cat_id": 42990,
        "meta_element_set_no": 999,
        "meta_rev_at_epoch": 45326,
        "meta_bstar": 0.00051814,
        "meta_mean_motion_dot": 0.00016361,
        "meta_mean_motion_ddot": 0,
        "tle_line1": "1 42990U 17068D   25343.82499249  .00016361  00000+0  51814-3 0  9998",
        "tle_line2": "2 42990  97.4280 113.8129 0001784   1.5000 358.6247 15.32817038453260"
      },
      "geometry": {
        "type": "Point",
        "coordinates": [
          -57.36593517035799,
          48.24575680104523
        ]
      }
    },
    {
      "type": "Feature",
      "properties": {
        "norad_id": 42991,
        "name": "SKYSAT-C7",
        "group": "resource",
        "lat": -8.263019232033809,
        "lon": 116.35884909503598,
        "alt_km": 471.70049362759346,
        "timestamp": "2025-12-10T05:46:13.454916+00:00",
        "meta_object_name": "SKYSAT-C7",
        "meta_object_id": "2017-068E",
        "meta_epoch": "2025-12-09T18:50:06.610272",
        "meta_mean_motion": 15.32221715,
        "meta_eccentricity": 0.0007766,
        "meta_inclination": 97.4288,
        "meta_ra_of_asc_node": 114.816,
        "meta_arg_of_pericenter": 66.4597,
        "meta_mean_anomaly": 293.7459,
        "meta_ephemeris_type": 0,
        "meta_classification_type": "U",
        "meta_norad_cat_id": 42991,
        "meta_element_set_no": 999,
        "meta_rev_at_epoch": 45332,
        "meta_bstar": 0.00052659,
        "meta_mean_motion_dot": 0.00016335,
        "meta_mean_motion_ddot": 0,
        "tle_line1": "1 42991U 17068E   25343.78479873  .00016335  00000+0  52659-3 0  9994",
        "tle_line2": "2 42991  97.4288 114.8160 0007766  66.4597 293.7459 15.32221715453324"
      },
      "geometry": {
        "type": "Point",
        "coordinates": [
          116.35884909503598,
          -8.263019232033809
        ]
      }
    },
    {
      "type": "Feature",
      "properties": {
        "norad_id": 42992,
        "name": "SKYSAT-C6",
        "group": "resource",
        "lat": 62.659721565779506,
        "lon": -49.661834456040864,
        "alt_km": 462.3607173971777,
        "timestamp": "2025-12-10T05:46:13.454926+00:00",
        "meta_object_name": "SKYSAT-C6",
        "meta_object_id": "2017-068F",
        "meta_epoch": "2025-12-09T19:51:19.157184",
        "meta_mean_motion": 15.31392269,
        "meta_eccentricity": 0.0005235,
        "meta_inclination": 97.4322,
        "meta_ra_of_asc_node": 115.2996,
        "meta_arg_of_pericenter": 90.3922,
        "meta_mean_anomaly": 269.7919,
        "meta_ephemeris_type": 0,
        "meta_classification_type": "U",
        "meta_norad_cat_id": 42992,
        "meta_element_set_no": 999,
        "meta_rev_at_epoch": 45331,
        "meta_bstar": 0.00051928,
        "meta_mean_motion_dot": 0.00015687,
        "meta_mean_motion_ddot": 0,
        "tle_line1": "1 42992U 17068F   25343.82730506  .00015687  00000+0  51928-3 0  9990",
        "tle_line2": "2 42992  97.4322 115.2996 0005235  90.3922 269.7919 15.31392269453318"
      },
      "geometry": {
        "type": "Point",
        "coordinates": [
          -49.661834456040864,
          62.659721565779506
        ]
      }
    },
    {
      "type": "Feature",
      "properties": {
        "norad_id": 43111,
        "name": "CARTOSAT-2F",
        "group": "resource",
        "lat": -27.622170335327706,
        "lon": 45.834279702176545,
        "alt_km": 514.5248859480653,
        "timestamp": "2025-12-10T05:46:13.454936+00:00",
        "meta_object_name": "CARTOSAT-2F",
        "meta_object_id": "2018-004A",
        "meta_epoch": "2025-12-09T20:24:29.875392",
        "meta_mean_motion": 15.19223392,
        "meta_eccentricity": 7.08e-05,
        "meta_inclination": 97.4312,
        "meta_ra_of_asc_node": 41.5342,
        "meta_arg_of_pericenter": 142.4754,
        "meta_mean_anomaly": 217.653,
        "meta_ephemeris_type": 0,
        "meta_classification_type": "U",
        "meta_norad_cat_id": 43111,
        "meta_element_set_no": 999,
        "meta_rev_at_epoch": 43858,
        "meta_bstar": 0.00024859,
        "meta_mean_motion_dot": 5.168e-05,
        "meta_mean_motion_ddot": 0,
        "tle_line1": "1 43111U 18004A   25343.85034578  .00005168  00000+0  24859-3 0  9990",
        "tle_line2": "2 43111  97.4312  41.5342 0000708 142.4754 217.6530 15.19223392438588"
      },
      "geometry": {
        "type": "Point",
        "coordinates": [
          45.834279702176545,
          -27.622170335327706
        ]
      }
    },
    {
      "type": "Feature",
      "properties": {
        "norad_id": 43259,
        "name": "GAOFEN-1 02",
        "group": "resource",
        "lat": 56.027929229288304,
        "lon": -125.7994363336,
        "alt_km": 635.2902291926675,
        "timestamp": "2025-12-10T05:46:13.454946+00:00",
        "meta_object_name": "GAOFEN-1 02",
        "meta_object_id": "2018-031A",
        "meta_epoch": "2025-12-09T21:04:56.983584",
        "meta_mean_motion": 14.76470972,
        "meta_eccentricity": 0.0001446,
        "meta_inclination": 98.0805,
        "meta_ra_of_asc_node": 41.6664,
        "meta_arg_of_pericenter": 223.0093,
        "meta_mean_anomaly": 137.1003,
        "meta_ephemeris_type": 0,
        "meta_classification_type": "U",
        "meta_norad_cat_id": 43259,
        "meta_element_set_no": 999,
        "meta_rev_at_epoch": 41476,
        "meta_bstar": 0.00021092,
        "meta_mean_motion_dot": 1.416e-05,
        "meta_mean_motion_ddot": 0,
        "tle_line1": "1 43259U 18031A   25343.87843731  .00001416  00000+0  21092-3 0  9992",
        "tle_line2": "2 43259  98.0805  41.6664 0001446 223.0093 137.1003 14.76470972414760"
      },
      "geometry": {
        "type": "Point",
        "coordinates": [
          -125.7994363336,
          56.027929229288304
        ]
      }
    }
  ]
}